ONEWEB-0080             
1 45426U 20020C   26003.39229972 -.00000589  00000+0 -16986-2 0  9994
2 45426  87.8833  53.8749 0001569  88.8838 271.2469 13.11415595281108
ONEWEB-0090             
1 45427U 20020D   26003.48809374  .00000080  00000+0  18950-3 0  9993
2 45427  87.8837  53.8581 0001763  98.3350 261.7977 13.11418066281089
ONEWEB-0061             
1 45428U 20020E   26003.13868645  .00000264  00000+0  71022-3 0  9995
2 45428  87.8839  53.9101 0001745  97.3652 262.7674 13.11414633280995
ONEWEB-0081             
1 45429U 20020F   26003.42536395  .00000586  00000+0  16180-2 0  9992
2 45429  87.8840  53.8682 0001893  93.2976 266.8369 13.11419270281145
ONEWEB-0069             
1 45430U 20020G   26003.41433980  .00000150  00000+0  38826-3 0  9998
2 45430  87.8840  53.8664 0001815  96.3061 263.8273 13.11418893281073
ONEWEB-0031             
1 45431U 20020H   26003.38635963 -.00000549  00000+0 -15859-2 0  9994
2 45431  87.8830  53.8943 0001533  97.7238 262.4064 13.11415328281052
ONEWEB-0027             
1 45432U 20020J   26003.14470751  .00000051  00000+0  98657-4 0  9996
2 45432  87.9095  38.6501 0001431 104.9159 255.2131 13.17648970284626
ONEWEB-0064             
1 45433U 20020K   26003.38466532 -.00000464  00000+0 -13444-2 0  9994
2 45433  87.8833  53.8848 0001578 100.6306 259.5000 13.11415419281081
